{"type": "FeatureCollection", "features": [ {"type": "Feature", "properties": {"norad_id": 36402, "name": "COSMOS 2460 (732)", "group": "gnss", "lat": -26.480808062413594, "lon": -52.43184215789142, "alt_km": 19129.522680606828, "timestamp": "2025-12-15T04:01:20.694792+00:00", "meta": {"OBJECT_NAME": "COSMOS 2460 (732)", "OBJECT_ID": "2010-007C", "EPOCH": "2025-12-13T13:53:49.157952", "MEAN_MOTION": 2.13106108, "ECCENTRICITY": 0.00026771, "INCLINATION": 65.5289, "RA_OF_ASC_NODE": 320.7443, "ARG_OF_PERICENTER": 274.1475, "MEAN_ANOMALY": 277.7778, "EPHEMERIS_TYPE": 0, "CLASSIFICATION_TYPE": "U", "NORAD_CAT_ID": 36402, "ELEMENT_SET_NO": 999, "REV_AT_EPOCH": 12277, "BSTAR": 0, "MEAN_MOTION_DOT": -6.1e-07, "MEAN_MOTION_DDOT": 0}, "tle": {"line1": "1 36402U 10007C   25347.57904118 -.00000061  00000+0  00000+0 0  9995", "line2": "2 36402  65.5289 320.7443 0002677 274.1475 277.7778  2.13106108122773"}}, "geometry": {"type": "Point", "coordinates": [-52.43184215789142, -26.480808062413594]}}, {"type": "Feature", "properties": {"norad_id": 36585, "name": "GPS BIIF-1  (PRN 25)", "group": "gnss", "lat": 32.78256031914058, "lon": 8.416968487694074, "alt_km": 20077.69756228866, "timestamp": "2025-12-15T04:01:20.694804+00:00", "meta": {"OBJECT_NAME": "GPS BIIF-1  (PRN 25)", "OBJECT_ID": "2010-022A", "EPOCH": "2025-12-14T05:35:49.434720", "MEAN_MOTION": 2.00553343, "ECCENTRICITY": 0.01261835, "INCLINATION": 54.2999, "RA_OF_ASC_NODE": 216.0137, "ARG_OF_PERICENTER": 65.0918, "MEAN_ANOMALY": 117.1041, "EPHEMERIS_TYPE": 0, "CLASSIFICATION_TYPE": "U", "NORAD_CAT_ID": 36585, "ELEMENT_SET_NO": 999, "REV_AT_EPOCH": 11388, "BSTAR": 0, "MEAN_MOTION_DOT": 4.9e-07, "MEAN_MOTION_DDOT": 0}, "tle": {"line1": "1 36585U 10022A   25348.23321105  .00000049  00000+0  00000+0 0  9992", "line2": "2 36585  54.2999 216.0137 0126183  65.0918 117.1041  2.00553343113888"}}, "geometry": {"type": "Point", "coordinates": [8.416968487694074, 32.78256031914058]}}, {"type": "Feature", "properties": {"norad_id": 36828, "name": "BEIDOU-2 IGSO-1 (C06)", "group": "gnss", "lat": 54.13839941821243, "lon": -110.10882965658286, "alt_km": 35913.67565780023, "timestamp": "2025-12-15T04:01:20.694817+00:00", "meta": {"OBJECT_NAME": "BEIDOU-2 IGSO-1 (C06)", "OBJECT_ID": "2010-036A", "EPOCH": "2025-12-13T21:54:21.538656", "MEAN_MOTION": 1.00275899, "ECCENTRICITY": 0.00512465, "INCLINATION": 54.2867, "RA_OF_ASC_NODE": 164.6367, "ARG_OF_PERICENTER": 215.8478, "MEAN_ANOMALY": 138.8413, "EPHEMERIS_TYPE": 0, "CLASSIFICATION_TYPE": "U", "NORAD_CAT_ID": 36828, "ELEMENT_SET_NO": 999, "REV_AT_EPOCH": 5623, "BSTAR": 0, "MEAN_MOTION_DOT": -2.9e-07, "MEAN_MOTION_DDOT": 0}, "tle": {"line1": "1 36828U 10036A   25347.91274929 -.00000029  00000+0  00000+0 0  9991", "line2": "2 36828  54.2867 164.6367 0051246 215.8478 138.8413  1.00275899 56232"}}, "geometry": {"type": "Point", "coordinates": [-110.10882965658286, 54.13839941821243]}}, {"type": "Feature", "properties": {"norad_id": 37210, "name": "BEIDOU-2 G4 (C04)", "group": "gnss", "lat": -2.6145390708050154, "lon": -55.476561429382144, "alt_km": 35753.25006282783, "timestamp": "2025-12-15T04:01:20.694830+00:00", "meta": {"OBJECT_NAME": "BEIDOU-2 G4 (C04)", "OBJECT_ID": "2010-057A", "EPOCH": "2025-12-14T07:19:54.939936", "MEAN_MOTION": 1.00271726, "ECCENTRICITY": 0.00107273, "INCLINATION": 3.1887, "RA_OF_ASC_NODE": 69.9344, "ARG_OF_PERICENTER": 191.5622, "MEAN_ANOMALY": 91.7831, "EPHEMERIS_TYPE": 0, "CLASSIFICATION_TYPE": "U", "NORAD_CAT_ID": 37210, "ELEMENT_SET_NO": 999, "REV_AT_EPOCH": 5543, "BSTAR": 0, "MEAN_MOTION_DOT": -9.5e-07, "MEAN_MOTION_DDOT": 0}, "tle": {"line1": "1 37210U 10057A   25348.30549699 -.00000095  00000+0  00000+0 0  9996", "line2": "2 37210   3.1887  69.9344 0010727 191.5622  91.7831  1.00271726 55432"}}, "geometry": {"type": "Point", "coordinates": [-55.476561429382144, -2.6145390708050154]}}, {"type": "Feature", "properties": {"norad_id": 37256, "name": "BEIDOU-2 IGSO-2 (C07)", "group": "gnss", "lat": -15.807225573494968, "lon": -100.71717197258062, "alt_km": 35895.43747991675, "timestamp": "2025-12-15T04:01:20.694843+00:00", "meta": {"OBJECT_NAME": "BEIDOU-2 IGSO-2 (C07)", "OBJECT_ID": "2010-068A", "EPOCH": "2025-12-03T17:22:36.027840", "MEAN_MOTION": 1.0028872, "ECCENTRICITY": 0.00492449, "INCLINATION": 47.9042, "RA_OF_ASC_NODE": 274.2614, "ARG_OF_PERICENTER": 216.1411, "MEAN_ANOMALY": 310.24, "EPHEMERIS_TYPE": 0, "CLASSIFICATION_TYPE": "U", "NORAD_CAT_ID": 37256, "ELEMENT_SET_NO": 999, "REV_AT_EPOCH": 5483, "BSTAR": 0, "MEAN_MOTION_DOT": -2.25e-06, "MEAN_MOTION_DDOT": 0}, "tle": {"line1": "1 37256U 10068A   25337.72402810 -.00000225  00000+0  00000+0 0  9990", "line2": "2 37256  47.9042 274.2614 0049244 216.1411 310.2400  1.00288720 54834"}}, "geometry": {"type": "Point", "coordinates": [-100.71717197258062, -15.807225573494968]}}, {"type": "Feature", "properties": {"norad_id": 37384, "name": "BEIDOU-2 IGSO-3 (C08)", "group": "gnss", "lat": -26.35526933466613, "lon": -122.91097695712843, "alt_km": 35652.18035346095, "timestamp": "2025-12-15T04:01:20.694857+00:00", "meta": {"OBJECT_NAME": "BEIDOU-2 IGSO-3 (C08)", "OBJECT_ID": "2011-013A", "EPOCH": "2025-12-13T13:58:02.786016", "MEAN_MOTION": 1.00270696, "ECCENTRICITY": 0.00354199, "INCLINATION": 62.1449, "RA_OF_ASC_NODE": 41.9072, "ARG_OF_PERICENTER": 187.5637, "MEAN_ANOMALY": 170.0888, "EPHEMERIS_TYPE": 0, "CLASSIFICATION_TYPE": "U", "NORAD_CAT_ID": 37384, "ELEMENT_SET_NO": 999, "REV_AT_EPOCH": 5379, "BSTAR": 0, "MEAN_MOTION_DOT": -1.97e-06, "MEAN_MOTION_DDOT": 0}, "tle": {"line1": "1 37384U 11013A   25347.58197669 -.00000197  00000+0  00000+0 0  9999", "line2": "2 37384  62.1449  41.9072 0035419 187.5637 170.0888  1.00270696 53792"}}, "geometry": {"type": "Point", "coordinates": [-122.91097695712843, -26.35526933466613]}}, {"type": "Feature", "properties": {"norad_id": 37605, "name": "GSAT-8 (GAGAN/PRN 127)", "group": "gnss", "lat": 1.4829454486029687, "lon": -160.59677330736076, "alt_km": 35772.07468162342, "timestamp": "2025-12-15T04:01:20.694870+00:00", "meta": {"OBJECT_NAME": "GSAT-8 (GAGAN/PRN 127)", "OBJECT_ID": "2011-022A", "EPOCH": "2025-12-14T05:07:15.147264", "MEAN_MOTION": 1.00272393, "ECCENTRICITY": 0.00086894, "INCLINATION": 1.6536, "RA_OF_ASC_NODE": 84.1806, "ARG_OF_PERICENTER": 183.7195, "MEAN_ANOMALY": 307.1281, "EPHEMERIS_TYPE": 0, "CLASSIFICATION_TYPE": "U", "NORAD_CAT_ID": 37605, "ELEMENT_SET_NO": 999, "REV_AT_EPOCH": 5136, "BSTAR": 0, "MEAN_MOTION_DOT": 1.02e-06, "MEAN_MOTION_DDOT": 0}, "tle": {"line1": "1 37605U 11022A   25348.21336976  .00000102  00000+0  00000+0 0  9997", "line2": "2 37605   1.6536  84.1806 0008689 183.7195 307.1281  1.00272393 51360"}}, "geometry": {"type": "Point", "coordinates": [-160.59677330736076, 1.4829454486029687]}}, {"type": "Feature", "properties": {"norad_id": 37763, "name": "BEIDOU-2 IGSO-4 (C09)", "group": "gnss", "lat": 50.34359945933453, "lon": -133.40727037017987, "alt_km": 36364.99574540528, "timestamp": "2025-12-15T04:01:20.694883+00:00", "meta": {"OBJECT_NAME": "BEIDOU-2 IGSO-4 (C09)", "OBJECT_ID": "2011-038A", "EPOCH": "2025-12-10T12:04:03.489024", "MEAN_MOTION": 1.00284678, "ECCENTRICITY": 0.01490344, "INCLINATION": 54.5829, "RA_OF_ASC_NODE": 167.3658, "ARG_OF_PERICENTER": 230.2355, "MEAN_ANOMALY": 317.2212, "EPHEMERIS_TYPE": 0, "CLASSIFICATION_TYPE": "U", "NORAD_CAT_ID": 37763, "ELEMENT_SET_NO": 999, "REV_AT_EPOCH": 5275, "BSTAR": 0, "MEAN_MOTION_DOT": 3.6e-07, "MEAN_MOTION_DDOT": 0}, "tle": {"line1": "1 37763U 11038A   25344.50281816  .00000036  00000+0  00000+0 0  9995", "line2": "2 37763  54.5829 167.3658 0149034 230.2355 317.2212  1.00284678 52751"}}, "geometry": {"type": "Point", "coordinates": [-133.40727037017987, 50.34359945933453]}}, {"type": "Feature", "properties": {"norad_id": 37846, "name": "GSAT0101 (GALILEO-PFM)", "group": "gnss", "lat": -39.20760133076371, "lon": -45.19388819936844, "alt_km": 23217.79381379573, "timestamp": "2025-12-15T04:01:20.694896+00:00", "meta": {"OBJECT_NAME": "GSAT0101 (GALILEO-PFM)", "OBJECT_ID": "2011-060A", "EPOCH": "2025-12-12T21:37:17.093856", "MEAN_MOTION": 1.70475751, "ECCENTRICITY": 0.00030259, "INCLINATION": 57.0527, "RA_OF_ASC_NODE": 346.8154, "ARG_OF_PERICENTER": 315.3436, "MEAN_ANOMALY": 44.6506, "EPHEMERIS_TYPE": 0, "CLASSIFICATION_TYPE": "U", "NORAD_CAT_ID": 37846, "ELEMENT_SET_NO": 999, "REV_AT_EPOCH": 8794, "BSTAR": 0, "MEAN_MOTION_DOT": -8.7e-07, "MEAN_MOTION_DDOT": 0}, "tle": {"line1": "1 37846U 11060A   25346.90089229 -.00000087  00000+0  00000+0 0  9999", "line2": "2 37846  57.0527 346.8154 0003025 315.3436  44.6506  1.70475751 87942"}}, "geometry": {"type": "Point", "coordinates": [-45.19388819936844, -39.20760133076371]}}, {"type": "Feature", "properties": {"norad_id": 37847, "name": "GSAT0102 (GALILEO-FM2)", "group": "gnss", "lat": -2.8411096182968927, "lon": -15.090929677955208, "alt_km": 23212.643357705234, "timestamp": "2025-12-15T04:01:20.694909+00:00", "meta": {"OBJECT_NAME": "GSAT0102 (GALILEO-FM2)", "OBJECT_ID": "2011-060B", "EPOCH": "2025-12-12T05:47:25.345248", "MEAN_MOTION": 1.70475905, "ECCENTRICITY": 0.00049802, "INCLINATION": 57.0536, "RA_OF_ASC_NODE": 346.8337, "ARG_OF_PERICENTER": 309.4177, "MEAN_ANOMALY": 51.2149, "EPHEMERIS_TYPE": 0, "CLASSIFICATION_TYPE": "U", "NORAD_CAT_ID": 37847, "ELEMENT_SET_NO": 999, "REV_AT_EPOCH": 8794, "BSTAR": 0, "MEAN_MOTION_DOT": -8.7e-07, "MEAN_MOTION_DDOT": 0}, "tle": {"line1": "1 37847U 11060B   25346.24126557 -.00000087  00000+0  00000+0 0  9993", "line2": "2 37847  57.0536 346.8337 0004980 309.4177  51.2149  1.70475905 87941"}}, "geometry": {"type": "Point", "coordinates": [-15.090929677955208, -2.8411096182968927]}}]}